NAVSTAR 77 (USA 289)    
1 43873U 18109A   24137.43403696  .00000069  00000+0  00000+0 0  9999
2 43873  55.2856 122.2819 0028736 195.8898 347.0291  2.00554768 39798
